{"type": "FeatureCollection", "features": [{"type": "Feature", "properties": {"kind": "cell", "id": "cell-131", "trackId": "track-1", "maxDbz": 74.0, "areaPx": 77, "trackHeadingDeg": null, "trackSpeedKmh": null, "historyMinutes": 0, "history": [{"time": "20260907042000", "peakLon": 5.404262742621265, "peakLat": 52.36979588914527, "maxDbz": 74.0}], "birthLon": 5.392653852111749, "birthLat": 52.3877324988909, "birthDbz": 74.0, "ageMinutes": 0, "isNewborn": false, "trueBirth": false, "growthDbz": 0.0, "source": "OPERA-ORD", "time": "20260907042000"}, "geometry": {"type": "Polygon", "coordinates": [[[5.45445617132277, 52.34178570066073], [5.450562862975836, 52.343883182225255], [5.446669176863441, 52.34598052866715], [5.442775112985585, 52.34807773998643], [5.437166638130073, 52.348981223797246], [5.429843752296907, 52.34869098009961], [5.4225209566753305, 52.34840027167009], [5.415198251265342, 52.34810909850868], [5.409823647513496, 52.34676960191934], [5.406397145419793, 52.34438178190207], [5.402971008508901, 52.341993859995156], [5.399545236780823, 52.33960583619858], [5.394171922325658, 52.338265341805446], [5.386851065143405, 52.337972376815756], [5.381242351148238, 52.33887339023816], [5.377345780340155, 52.34096838207265], [5.3751611971895334, 52.34425769346178], [5.3746886016963735, 52.34874132440554], [5.372503211055986, 52.35203047873322], [5.368605025268372, 52.35412515644483], [5.362994200290868, 52.35502501625233], [5.355670736123473, 52.35473005815572], [5.35005920734323, 52.35562953323625], [5.346159613950138, 52.35772344149393], [5.342259642520534, 52.35981721419937], [5.338359293054417, 52.36191085135254], [5.334458565466444, 52.36400435291137], [5.330557459756615, 52.36609771887585], [5.328368027607968, 52.36938608678787], [5.327890269020503, 52.37386945664745], [5.327412392598383, 52.378352816783774], [5.326934398341609, 52.38283616719687], [5.328408131855987, 52.386272890434455], [5.331833593141518, 52.38866298649654], [5.337210939785704, 52.39000611380439], [5.344540171788546, 52.390302272358], [5.351869495765784, 52.39059796574476], [5.359198911717417, 52.39089319396466], [5.366528419358558, 52.39118795699923], [5.373858018689208, 52.39148225484846], [5.379237169795165, 52.392823702927906], [5.38266587267643, 52.39521230123758], [5.386094941754641, 52.39760079762201], [5.389524377029797, 52.39998919208122], [5.392954178618042, 52.4023774845813], [5.396384346519375, 52.40476567512225], [5.397863806645875, 52.408201585409735], [5.39739255899754, 52.41268521544376], [5.398872700305905, 52.41612103569219], [5.402304230570969, 52.41850904615504], [5.407687305287484, 52.41984890485509], [5.415021924455449, 52.42014061179233], [5.4223566343763085, 52.42043185315413], [5.429691435050061, 52.42072262894048], [5.435309306021562, 52.41981958221386], [5.439210247290813, 52.41772271297427], [5.4431108093089255, 52.415625708358185], [5.4470109920759, 52.413528568365614], [5.450910795677872, 52.41143129303872], [5.454810220114841, 52.409333882377474], [5.458709265472948, 52.40723633642405], [5.462607931752193, 52.40513865517845], [5.468223443827521, 52.404233739634314], [5.475555801698933, 52.404521589791656], [5.481170606780004, 52.40361628982349], [5.485067859070733, 52.401517839729806], [5.488964732441235, 52.399419254480634], [5.49286122689151, 52.39732053407597], [5.496757342507772, 52.39522167855791], [5.500653079290024, 52.39312268792642], [5.502831009514198, 52.389831117073655], [5.503291133180294, 52.38534696599961], [5.5054682554889744, 52.382055238970594], [5.509362376440238, 52.379955935986615], [5.513026915232302, 52.380098615720186], [5.516461871865167, 52.38248327817128], [5.519897194818937, 52.38486783824936], [5.5233328840936124, 52.387252295954426], [5.526997511481174, 52.38739451047031], [5.530891076981622, 52.38529448179702], [5.533066318668071, 52.382002317191954], [5.533523236540519, 52.37751801665513], [5.532034116446679, 52.37408376297869], [5.528598958386551, 52.37169955616265], [5.525164166406164, 52.36931524696957], [5.521729740505519, 52.36693083539945], [5.518295680569076, 52.364546321486294], [5.514861986596835, 52.362161705230086], [5.5114286584732834, 52.35977698666483], [5.507995696198419, 52.35739216579052], [5.504563099656758, 52.35500724264112], [5.501130868848298, 52.35262221721665], [5.495752952522697, 52.3512864417639], [5.488429350679952, 52.35099991628287], [5.4811058379120645, 52.350712925997776], [5.473782414219034, 52.35042547090861], [5.468405785064873, 52.349088696478994], [5.464975950449582, 52.34670260270893], [5.461546481230512, 52.344316406837535], [5.458117377407661, 52.34193010886482], [5.45445617132277, 52.34178570066073]]]}}, {"type": "Feature", "properties": {"kind": "peak", "id": "cell-131", "cellId": "cell-131", "trackId": "track-1", "maxDbz": 74.0, "source": "OPERA-ORD", "time": "20260907042000"}, "geometry": {"type": "Point", "coordinates": [5.404262742621265, 52.36979588914527]}}, {"type": "Feature", "properties": {"kind": "centroid", "id": "cell-131", "cellId": "cell-131", "trackId": "track-1", "maxDbz": 74.0, "source": "OPERA-ORD", "time": "20260907042000"}, "geometry": {"type": "Point", "coordinates": [5.427613519657456, 52.37696190491588]}}, {"type": "Feature", "properties": {"kind": "cell", "id": "cell-199", "trackId": "track-3", "maxDbz": 56.0, "areaPx": 103, "trackHeadingDeg": 61.2, "trackSpeedKmh": 35.7, "historyMinutes": 15, "history": [{"time": "20260907040500", "peakLon": 7.364338092571215, "peakLat": 47.35304250927158, "maxDbz": 54.0}, {"time": "20260907041500", "peakLon": 7.468174441795835, "peakLat": 47.39166466201044, "maxDbz": 56.0}, {"time": "20260907042000", "peakLon": 7.396543088652295, "peakLat": 47.218923932376846, "maxDbz": 56.0}], "birthLon": 7.364338092571215, "birthLat": 47.35304250927158, "birthDbz": 54.0, "ageMinutes": 15, "isNewborn": false, "trueBirth": false, "growthDbz": 2.0, "source": "OPERA-ORD", "time": "20260907042000"}, "geometry": {"type": "Polygon", "coordinates": [[[7.4277208276946585, 47.34108475684438], [7.421121740920816, 47.34092309780552], [7.416115717164292, 47.34192756992556], [7.412702756425088, 47.3440981732045], [7.410882792580767, 47.34743520637552], [7.41065582563133, 47.35193866943861], [7.408835256565852, 47.355275571301426], [7.405421085384333, 47.357445911963964], [7.402006622504154, 47.35961613713258], [7.3985918679253135, 47.36178624680727], [7.396770329309818, 47.36512298573706], [7.3965420066576675, 47.36962635392194], [7.396313633682455, 47.37412970643288], [7.396085210384182, 47.378633043269886], [7.397565056409203, 47.38205135724801], [7.400753171757515, 47.38438464836723], [7.405649623071055, 47.38563261756242], [7.412254410349821, 47.38579526483357], [7.417264561640684, 47.38479125050652], [7.420680076943645, 47.38262057458127], [7.4240953002298475, 47.38044978317164], [7.427510231499291, 47.378278876277626], [7.4309248708172175, 47.37610785392984], [7.434339218183626, 47.37393671612828], [7.43775327366376, 47.371765462903554], [7.441167037257618, 47.36959409425566], [7.444468659088453, 47.3696743580773], [7.447658139156264, 47.37200625436846], [7.447545975555792, 47.37425798650471], [7.444132168287036, 47.376429554486045], [7.440718069068812, 47.37860100705427], [7.437303677901123, 47.38077234420939], [7.433888994718689, 47.3829435659208], [7.430474019521511, 47.38511467218848], [7.42705875224431, 47.38728566298184], [7.423643192887084, 47.38945653830088], [7.42182225798418, 47.39279364516423], [7.421595947535597, 47.397296983571906], [7.423077995372939, 47.4007149002675], [7.42626840149621, 47.403047395251036], [7.431167231959084, 47.40429416929192], [7.437774486761564, 47.40445522239017], [7.444381779569153, 47.404615860887986], [7.450989110381853, 47.404776084785375], [7.455888882322992, 47.4060219458493], [7.459081095392572, 47.408353444079765], [7.460565684322781, 47.41177087874695], [7.460342649113621, 47.41627424985084], [7.461827789779068, 47.419691584897485], [7.4650211063191225, 47.422022883886896], [7.469922663859679, 47.423267847412106], [7.476532462400737, 47.42342647547313], [7.483142298411368, 47.423584688748065], [7.489752171891574, 47.42374248723691], [7.494654670759701, 47.42498653703421], [7.497849795015748, 47.427316838139944], [7.497739652610386, 47.42956853945198], [7.4943242435436135, 47.431741640970316], [7.490908541763873, 47.43391462711524], [7.487492547271165, 47.43608749788677], [7.485674044676204, 47.439425603509335], [7.48545303397899, 47.44392894398295], [7.486940600537132, 47.44734586464625], [7.490136744350631, 47.44967636549924], [7.493333175471418, 47.452006766496446], [7.496529893899492, 47.45433706763786], [7.499726899711775, 47.45666726889628], [7.502924192908266, 47.45899737027173], [7.507830170841099, 47.460240552325374], [7.514444833510273, 47.4603968150572], [7.519460269024588, 47.45938801165812], [7.522876477384041, 47.45721414212811], [7.52629239271385, 47.45504015727543], [7.529708015014014, 47.45286605710007], [7.53301511147578, 47.45294355810119], [7.53621368209915, 47.45527266027881], [7.539412540188692, 47.45760166245055], [7.542611685744406, 47.45993056461642], [7.547518700214679, 47.46117190163793], [7.554133583599511, 47.46132567351509], [7.56074850337791, 47.461479030235296], [7.567363459549877, 47.461631971798546], [7.573978451919195, 47.46178449819766], [7.580593480485863, 47.461936609432634], [7.585607738570546, 47.46092465450989], [7.589021226173243, 47.458748633429416], [7.590833881191324, 47.45540884598522], [7.591045703624791, 47.45090529217728], [7.591257479313092, 47.446401722912995], [7.591469208256228, 47.44189813819237], [7.589975087282909, 47.438482594174886], [7.586775116393135, 47.436155090860545], [7.583575432748308, 47.43382748743078], [7.580376036348426, 47.4314997838856], [7.578882688902618, 47.4280841237639], [7.579095390410885, 47.4235805070657], [7.57760259644313, 47.4201647466168], [7.5744043069993525, 47.417836842417195], [7.571206304521029, 47.4155088381701], [7.56800858900816, 47.41318073387551], [7.568115159047133, 47.41092890977218], [7.571526014637948, 47.40875336586012], [7.57493657791756, 47.406577706880626], [7.578346848885971, 47.4044019328337], [7.580158194476269, 47.40106219090501], [7.580370614688453, 47.396558481094544], [7.580582988076851, 47.39205475573763], [7.580795314641462, 47.387551014834266], [7.5793033973139625, 47.38413519122297], [7.576107236094351, 47.38180728490373], [7.571206893090718, 47.38056699672415], [7.5646023683030625, 47.380414326684246], [7.557997879689442, 47.38026124222239], [7.551393427249854, 47.3801077433386], [7.544789011179323, 47.37995383004005], [7.538184631477845, 47.37979950232675], [7.531580288340424, 47.37964476020591], [7.524975981767061, 47.37948960367754], [7.518371711952738, 47.37933403274889], [7.511767478897457, 47.37917804741996], [7.506869105134419, 47.37793500371779], [7.503676590663626, 47.37560490164237], [7.500484362442352, 47.3732746998045], [7.497292420470598, 47.37094439820418], [7.494100764671877, 47.36861399686848], [7.490909395046192, 47.366283495797404], [7.4877183115170665, 47.363952895018], [7.484527514084504, 47.36162219453028], [7.481337002672043, 47.359291394361264], [7.478146777279683, 47.356960494510986], [7.474956837830977, 47.35462949500645], [7.471767184325925, 47.35229839584767], [7.466872123417996, 47.35105324315981], [7.460271655107192, 47.35089403694285], [7.453671224454164, 47.35073441660669], [7.447070831458912, 47.35057438215135], [7.442176709108387, 47.34932831736307], [7.43898885740259, 47.34699622224186], [7.435801291432663, 47.3446640276019], [7.432614011198607, 47.342331733443174], [7.4277208276946585, 47.34108475684438]]]}}, {"type": "Feature", "properties": {"kind": "peak", "id": "cell-199", "cellId": "cell-199", "trackId": "track-3", "maxDbz": 56.0, "source": "OPERA-ORD", "time": "20260907042000"}, "geometry": {"type": "Point", "coordinates": [7.396543088652295, 47.218923932376846]}}, {"type": "Feature", "properties": {"kind": "centroid", "id": "cell-199", "cellId": "cell-199", "trackId": "track-3", "maxDbz": 56.0, "source": "OPERA-ORD", "time": "20260907042000"}, "geometry": {"type": "Point", "coordinates": [7.50160765389962, 47.40393255387693]}}, {"type": "Feature", "properties": {"kind": "cell", "id": "cell-245", "trackId": "track-4", "maxDbz": 55.0, "areaPx": 460, "trackHeadingDeg": 87.9, "trackSpeedKmh": 11.9, "historyMinutes": 15, "history": [{"time": "20260907040500", "peakLon": 7.357619211434258, "peakLat": 47.22661217788554, "maxDbz": 46.0}, {"time": "20260907041000", "peakLon": 7.43573731385898, "peakLat": 47.24658772465568, "maxDbz": 49.0}, {"time": "20260907042000", "peakLon": 7.396543088652295, "peakLat": 47.218923932376846, "maxDbz": 55.0}], "birthLon": 7.357619211434258, "birthLat": 47.22661217788554, "birthDbz": 46.0, "ageMinutes": 15, "isNewborn": false, "trueBirth": false, "growthDbz": 9.0, "source": "OPERA-ORD", "time": "20260907042000"}, "geometry": {"type": "Polygon", "coordinates": [[[7.2559292272461215, 47.093212631139096], [7.24936220488656, 47.093040296556], [7.2443769079842335, 47.09403686291544], [7.240973336539142, 47.096202330217416], [7.239151420950526, 47.09953699511988], [7.238911161218383, 47.10404085762283], [7.2386708488271605, 47.10854470395363], [7.238430483776858, 47.113048534112295], [7.238190066034626, 47.117552348112596], [7.237949595600465, 47.12205614595454], [7.236126351752159, 47.12539061337724], [7.232720334489706, 47.12755575038071], [7.229314028689564, 47.12972077183876], [7.225907434351734, 47.1318856777514], [7.225786834523222, 47.13413754396859], [7.228952229204028, 47.136476370490335], [7.232117906362692, 47.13881509845422], [7.2352838659992145, 47.14115372786024], [7.235163213271685, 47.143405577949636], [7.231755948180103, 47.1455706487224], [7.226765461270506, 47.14656609117631], [7.220191752542893, 47.14639190531138], [7.213618084560489, 47.14621730725426], [7.207044457323294, 47.146042297004925], [7.200470871022619, 47.145866874571496], [7.193897325658465, 47.145691039953945], [7.187323821422127, 47.145514793160395], [7.1807503583136025, 47.14533813419084], [7.174176936524169, 47.14516106305343], [7.167603556053827, 47.14498357974818], [7.162611618752406, 47.14597618430272], [7.159201124619905, 47.14813887671705], [7.155790341628946, 47.15030145331376], [7.15237926977953, 47.15246391409284], [7.148967909008086, 47.1546262590239], [7.145556259314618, 47.156788488106926], [7.143725932632267, 47.160121300074024], [7.143476928961033, 47.164624694925195], [7.143227870649042, 47.16912807364543], [7.142978757696294, 47.173631436234714], [7.142729590068655, 47.17813478270679], [7.142480367766125, 47.18263811306168], [7.142231090754544, 47.187141427313065], [7.141981759033911, 47.19164472546096], [7.141732372570035, 47.19614800751912], [7.141482931362917, 47.20065127348754], [7.141233435378336, 47.20515452337993], [7.140983884616291, 47.2096577571963], [7.140734279042535, 47.21416097495038], [7.140484618657067, 47.21866417664218], [7.1419432370936065, 47.222086382350675], [7.145110134352155, 47.224427592075884], [7.148277315154816, 47.226768703357735], [7.1514447795015865, 47.22910971619624], [7.154612527468848, 47.2314506305648], [7.157780559056601, 47.233791446463414], [7.160948874341233, 47.236132163865506], [7.1641174733227455, 47.23847278277105], [7.165577925973612, 47.2418946800574], [7.165330232293831, 47.24639785572454], [7.163497665096842, 47.24973070445685], [7.160080224382646, 47.25189322625437], [7.15666249335127, 47.2540556320161], [7.153244472002717, 47.25621792174206], [7.149826160272974, 47.25838009540169], [7.146407558162039, 47.26054215299498], [7.142988665605898, 47.26270409449134], [7.139569482604554, 47.26486591989075], [7.137734731320007, 47.26819833735088], [7.137484411752256, 47.27270134687173], [7.135649055015366, 47.27603363138182], [7.132228661109336, 47.27819519088118], [7.1288079765025465, 47.28035663420156], [7.125387001194997, 47.28251796134295], [7.123550668404718, 47.28585008004762], [7.123298978131711, 47.290352990315576], [7.124758350710331, 47.29377525474425], [7.127928786140576, 47.296116873333645], [7.132810357703262, 47.297377547908155], [7.139403065398389, 47.29755727846778], [7.144409979913104, 47.296566182057305], [7.14783110124741, 47.29440425867672], [7.1512519316904015, 47.292242219146516], [7.15467247124208, 47.29008006346669], [7.159678603619449, 47.289088006341785], [7.1662703288225105, 47.289266047771804], [7.172862095789548, 47.28944367574263], [7.17945390452056, 47.28962089025426], [7.184459254301343, 47.28862787266765], [7.187878145131894, 47.286464622982784], [7.191296745200998, 47.284301257290394], [7.194715054508658, 47.282137775590485], [7.198133073119102, 47.27997417791366], [7.201550801032331, 47.2778104642599], [7.20338195080363, 47.274477015428715], [7.203626522432996, 47.269973831420096], [7.20216280497071, 47.266552521501595], [7.198990798416771, 47.264213085673205], [7.1941105740890485, 47.26295522596469], [7.187522131987542, 47.26277894237603], [7.182642499788285, 47.26152078607675], [7.179471677491276, 47.25918075706683], [7.179594744378109, 47.25692916709021], [7.183011700448785, 47.2547660161469], [7.1864283662037955, 47.25260274924854], [7.189844741643142, 47.250439366395135], [7.19167562809718, 47.24710605236596], [7.191921025565907, 47.242602807161006], [7.193751307828728, 47.239269360574724], [7.1971664748856385, 47.2371057126071], [7.202166598057108, 47.23611156550462], [7.208751677343137, 47.2362869192673], [7.213629746972083, 47.23754411422865], [7.21680080694395, 47.239883150388664], [7.218264786411776, 47.243304325516746], [7.218021685375563, 47.2478076396129], [7.2177785308996985, 47.252310937749364], [7.2175353229841805, 47.256814219926135], [7.2190000538459005, 47.26023528158282], [7.2221727234848565, 47.26257412271942], [7.227053402658742, 47.26383044535931], [7.233642091367554, 47.26400424950249], [7.238523362507181, 47.265260275296484], [7.241697216077622, 47.2675985227413], [7.244871353965333, 47.269936671381416], [7.248045776170314, 47.27227472121683], [7.251340468910304, 47.272361011878374], [7.254755432185304, 47.270195543366036], [7.258170104959004, 47.268029959089716], [7.261584487231404, 47.26586425904941], [7.266586144288521, 47.264867071305424], [7.2731750761303555, 47.26503839585776], [7.279764048108241, 47.26520930712898], [7.2863530602221775, 47.265379805119096], [7.291235723247692, 47.26663338495805], [7.294412037184786, 47.26897004664583], [7.297588635551984, 47.27130660936676], [7.3007655183492846, 47.273643073120816], [7.305649120451947, 47.27489574400185], [7.312239441859971, 47.27506462200987], [7.318829802851235, 47.27523308663214], [7.325420203425742, 47.27540113786867], [7.332010643390215, 47.27556877571165], [7.338601122744653, 47.27573600016107], [7.343486010258973, 47.27698714990042], [7.346665305933172, 47.279322224929714], [7.349844886273986, 47.28165720081687], [7.353024751281416, 47.28399207756189], [7.356204901031754, 47.28632685513796], [7.359385335524999, 47.28866153354506], [7.362566054837462, 47.29099611275637], [7.365747058969139, 47.29333059277187], [7.3706340686503555, 47.29458023717936], [7.377227083881113, 47.29474504597882], [7.383820137780365, 47.29490944119175], [7.390413230348114, 47.29507342281813], [7.397006361390734, 47.29523699085033], [7.403599530908228, 47.29540014528837], [7.40860100823609, 47.29439644105021], [7.412010793374318, 47.29222587813588], [7.415420287774825, 47.290055199901786], [7.418829491437611, 47.287884406347914], [7.423830178703396, 47.2868797436984], [7.4304223495721775, 47.28704121195325], [7.437014558309455, 47.287202266672345], [7.443606804915228, 47.28736290785569], [7.448606701667615, 47.28635728704954], [7.452014248566618, 47.2841854042539], [7.455421504861724, 47.28201340628034], [7.458828470552936, 47.27984129312888], [7.463827576341344, 47.2788347144209], [7.470418822226949, 47.2789936701564], [7.477010105375314, 47.27915221241492], [7.4836014257864365, 47.27931034119644], [7.490192783266833, 47.27946805649361], [7.496784177816502, 47.27962535830643], [7.503375609241938, 47.27978224662758], [7.50996707754314, 47.279938721457064], [7.516558582526588, 47.2800947827876], [7.523150124192282, 47.28025043061919], [7.528039835237365, 47.28149300838794], [7.5312277156618395, 47.28382251609385], [7.531119498174974, 47.28607449845512], [7.527715182776766, 47.28824895547178], [7.52271667862927, 47.28925834475862], [7.516123985732484, 47.28910266631566], [7.511124921362943, 47.2901117261704], [7.507719485520645, 47.29228552432286], [7.505907614681991, 47.29562435915516], [7.505689308846984, 47.30012823066732], [7.505470954963329, 47.304632086452614], [7.505252553031026, 47.30913592651105], [7.506737757179367, 47.31255289843621], [7.5099265674083515, 47.314883002228086], [7.514819047334618, 47.31612593930464], [7.5214151969581655, 47.316281709665844], [7.5280113831684305, 47.31643706619626], [7.534607605965414, 47.31659200889588], [7.53950102105259, 47.31783403386368], [7.542691628429958, 47.320163141099684], [7.545882521385085, 47.3224921485312], [7.549073699917972, 47.32482105615825], [7.553968049874615, 47.32606216872837], [7.5605655712550135, 47.32621548624154], [7.5654605133554576, 47.32745629954151], [7.568652876175944, 47.32978460862827], [7.570142597513086, 47.33320071221504], [7.569929677366884, 47.33770461030179], [7.571419949632782, 47.341120613670356], [7.574613414310782, 47.343448722320716], [7.579510133460794, 47.34468863740363], [7.586110107082819, 47.3448403589191], [7.592710116392798, 47.344991666324134], [7.5993101613907355, 47.3451425596187], [7.604312590087494, 47.34412958328563], [7.607717402483072, 47.3419527373249], [7.607822442848979, 47.339700758799495], [7.604627711185218, 47.337373647709406], [7.6014332654080565, 47.33504643661155], [7.598239105517496, 47.33271912550594], [7.598344099630693, 47.33046713135411], [7.601748247747648, 47.328290454156075], [7.606749225445174, 47.3272771185367], [7.613347032723273, 47.32742712449598], [7.618347448484956, 47.32641345973032], [7.621750472730225, 47.324236124239675], [7.623556044627913, 47.320895416765026], [7.623764164178018, 47.31639133730634], [7.623972237927723, 47.31188724219664], [7.624180265877024, 47.30738313143593], [7.624388248054629, 47.30287900501031], [7.624596184460535, 47.298374862919786], [7.626400440556905, 47.29503396392993], [7.629801016343737, 47.29285630804074], [7.633201301497893, 47.2906785375102], [7.636601296019375, 47.288500652338314], [7.640000999973556, 47.28632265255541], [7.6434004133604345, 47.2841445381615], [7.646799536245385, 47.281966309186885], [7.6501983686284065, 47.27978796563158], [7.650301359168681, 47.27753583347939], [7.647108507866209, 47.275209912730325], [7.643915941653183, 47.272883891945796], [7.640723660529602, 47.27055777112579], [7.637531664419775, 47.26823155029735], [7.634339953323702, 47.2659052294605], [7.631148527165704, 47.263578808642215], [7.627957385945779, 47.26125228784251], [7.626465555110001, 47.257836877864456], [7.626673034658371, 47.253332578708054], [7.6251817532774515, 47.2499170682283], [7.621991710967244, 47.2475903464252], [7.617102968234995, 47.24635211518535], [7.610515525080709, 47.24620237450876], [7.603928117158963, 47.24605222060747], [7.597340744469756, 47.245901653481475], [7.5924529314745675, 47.24466251066685], [7.589264678173395, 47.242334792163575], [7.586076709405495, 47.240006973854335], [7.582889025170865, 47.23767905573913], [7.578002142204559, 47.23643900163718], [7.571416060506577, 47.23628681154851], [7.566529766992893, 47.23504645859648], [7.56334326166351, 47.23271794278109], [7.56185648260394, 47.229301562086064], [7.56206942981418, 47.22479731651137], [7.560583198678884, 47.22138083571177], [7.557397789198051, 47.21905211968725], [7.552513263428322, 47.21781087058946], [7.5459296213697, 47.2176570884184], [7.540938110262886, 47.21866764916801], [7.53753873010788, 47.22084255283831], [7.534139060254673, 47.223017341715355], [7.530739100703264, 47.22519201579914], [7.527338851388822, 47.227366575059364], [7.523938312311348, 47.22954101949603], [7.520537483406006, 47.23171534907885], [7.517136364672798, 47.2338895638078], [7.512142945325856, 47.23489851058592], [7.505557225365179, 47.234742189413204], [7.498971542156931, 47.23458545515369], [7.49238589570111, 47.23442830780739], [7.485800286190578, 47.234270747381586], [7.479214713625335, 47.234112773876284], [7.47433081200366, 47.232868136951396], [7.4711485813255525, 47.23053683660693], [7.469667957342785, 47.22711917075202], [7.4698889400553545, 47.22261513938664], [7.468408862842158, 47.219197373969045], [7.465227725703197, 47.21686587449922], [7.460345593026839, 47.21562034320357], [7.453762464813088, 47.21546078008212], [7.4488809215792875, 47.21421495079746], [7.445700963325437, 47.2118828553496], [7.442521288935203, 47.209550660580845], [7.4393418984085855, 47.2072183664912], [7.436162791669841, 47.20488597310742], [7.43298396871897, 47.202553480429515], [7.429805429480244, 47.20022088848428], [7.426627173953663, 47.197888197271695], [7.423449202063508, 47.19555540681852], [7.420271513809779, 47.19322251712477], [7.418795258383244, 47.18980405588708], [7.419020435783904, 47.18530002310548], [7.417544725527558, 47.18188146262445], [7.414368127614209, 47.17954837444399], [7.411191813061927, 47.1772151870895], [7.408015781870711, 47.17488190056099], [7.40484003396493, 47.17254851488516], [7.401664569344582, 47.170215030062025], [7.39678832645937, 47.16896652189995], [7.390211305309293, 47.168802990398945], [7.385335650836576, 47.16755418491938], [7.3821613630412175, 47.16522010546126], [7.37898735835261, 47.162885926949556], [7.375813636770754, 47.160551649384274], [7.370938914256428, 47.15930193613103], [7.36436319080963, 47.15913678718982], [7.357787506028221, 47.158971225889545], [7.351211859912203, 47.15880525223018], [7.346338069638643, 47.157554631490775], [7.343166135207541, 47.155219363671314], [7.3399944836767785, 47.15288399693223], [7.336823115046354, 47.15054853127353], [7.333652029240627, 47.148212966721815], [7.3304812262596, 47.1458773032771], [7.329012166726363, 47.14245748810431], [7.329244850640913, 47.13795352120344], [7.329477483545686, 47.13344953822503], [7.329710065440679, 47.12894553916907], [7.328241757730012, 47.125525609388866], [7.325072560413686, 47.123189748884435], [7.321903645523986, 47.12085378956601], [7.3187350130609135, 47.118517731433606], [7.31556666294896, 47.116181574513774], [7.3123985951881245, 47.11384531880652], [7.309113479546815, 47.113760963137295], [7.305711316025029, 47.11592850750609], [7.302308864161797, 47.1180959365808], [7.298906123957121, 47.120263250361404], [7.293919412048098, 47.12126192532731], [7.28734872843473, 47.1210919614785], [7.282479985672229, 47.11983835737047], [7.279313183760593, 47.117501113003215], [7.276146664116665, 47.115163769969236], [7.272980426740448, 47.112826328268525], [7.269814471556377, 47.11048878792761], [7.266648798564454, 47.10815114894649], [7.2651849515652795, 47.10473036449108], [7.265422930558854, 47.10022643456141], [7.263959624648207, 47.09680555180508], [7.260795033833338, 47.09446771622212], [7.2559292272461215, 47.093212631139096]]]}}, {"type": "Feature", "properties": {"kind": "peak", "id": "cell-245", "cellId": "cell-245", "trackId": "track-4", "maxDbz": 55.0, "source": "OPERA-ORD", "time": "20260907042000"}, "geometry": {"type": "Point", "coordinates": [7.396543088652295, 47.218923932376846]}}, {"type": "Feature", "properties": {"kind": "centroid", "id": "cell-245", "cellId": "cell-245", "trackId": "track-4", "maxDbz": 55.0, "source": "OPERA-ORD", "time": "20260907042000"}, "geometry": {"type": "Point", "coordinates": [7.358390681906014, 47.22721980486286]}}, {"type": "Feature", "properties": {"kind": "cell", "id": "cell-173", "trackId": "track-5", "maxDbz": 53.0, "areaPx": 42, "trackHeadingDeg": null, "trackSpeedKmh": null, "historyMinutes": 5, "history": [{"time": "20260907041500", "peakLon": 5.630937213495627, "peakLat": 47.82776248189751, "maxDbz": 47.5}, {"time": "20260907042000", "peakLon": 5.704685969403721, "peakLat": 47.838987655103466, "maxDbz": 53.0}], "birthLon": 5.630937213495627, "birthLat": 47.82776248189751, "birthDbz": 47.5, "ageMinutes": 5, "isNewborn": false, "trueBirth": false, "growthDbz": 5.5, "source": "OPERA-ORD", "time": "20260907042000"}, "geometry": {"type": "Polygon", "coordinates": [[[5.696082948737411, 47.80787016653392], [5.689429499801219, 47.80759958036639], [5.684343479010609, 47.80852051902059], [5.680824886365581, 47.8106329824965], [5.6773059949915865, 47.81274532401461], [5.673786804888625, 47.8148575435749], [5.668700028848887, 47.81577749821273], [5.662045666872373, 47.81550518792809], [5.655391370752313, 47.81523246012795], [5.648737140488705, 47.81495931481232], [5.643649609722894, 47.815878285186606], [5.64012877845488, 47.817989371250796], [5.638174532586712, 47.821292873969995], [5.637786872118388, 47.82578879334422], [5.637399125496195, 47.83028469651143], [5.63701129272013, 47.83478058347163], [5.638384800602681, 47.83822097649629], [5.641519649143849, 47.84060587558541], [5.646415952610407, 47.84193497957186], [5.653073711002355, 47.84220828845562], [5.657970630952681, 47.84353710236095], [5.661106712461383, 47.845921421287834], [5.664243083304764, 47.84830564532484], [5.667379743482822, 47.850689774471974], [5.672277673178341, 47.85201768506886], [5.6789368723913185, 47.85228937711551], [5.683835418770017, 47.85361699740636], [5.686973312314436, 47.85600054594141], [5.6901114953955965, 47.85838399949244], [5.6932499680135, 47.86076735805942], [5.696388730250538, 47.86315062161602], [5.69952778210671, 47.86553379016223], [5.702667123664429, 47.86791686367168], [5.705806754923692, 47.87029984214437], [5.710707544773108, 47.87162597753208], [5.717369493212675, 47.87189526983481], [5.72403150677753, 47.87216414406103], [5.730693585467677, 47.87243260021074], [5.735784931786819, 47.87150973586504], [5.739305545734959, 47.86939555102391], [5.742825860125841, 47.867281244289245], [5.746345874959463, 47.86516681566105], [5.749865590298656, 47.863052265171774], [5.75338500614342, 47.86093759282142], [5.755333503496682, 47.857632102511914], [5.755711082358442, 47.85313579424325], [5.756088577294763, 47.84863946990558], [5.756465988305647, 47.84414312949889], [5.7568433154443, 47.8396467730102], [5.757220558710723, 47.835150400439524], [5.755839355512913, 47.83171143338513], [5.75269970585087, 47.82932987184702], [5.7478017210005685, 47.82800541463009], [5.741145400962008, 47.827738061734316], [5.736248031754422, 47.826413313904084], [5.733109613377811, 47.8240311711394], [5.729971484139675, 47.82164893331118], [5.726833644040014, 47.81926660041942], [5.721937281565841, 47.817940949022976], [5.715282396717158, 47.81767197912185], [5.710386649688278, 47.81634603733682], [5.707250040479201, 47.8139631236679], [5.704113720207372, 47.81158011502949], [5.700977688872795, 47.80919701142162], [5.696082948737411, 47.80787016653392]]]}}, {"type": "Feature", "properties": {"kind": "peak", "id": "cell-173", "cellId": "cell-173", "trackId": "track-5", "maxDbz": 53.0, "source": "OPERA-ORD", "time": "20260907042000"}, "geometry": {"type": "Point", "coordinates": [5.704685969403721, 47.838987655103466]}}, {"type": "Feature", "properties": {"kind": "centroid", "id": "cell-173", "cellId": "cell-173", "trackId": "track-5", "maxDbz": 53.0, "source": "OPERA-ORD", "time": "20260907042000"}, "geometry": {"type": "Point", "coordinates": [5.701543453977596, 47.83902936322505]}}, {"type": "Feature", "properties": {"kind": "cell", "id": "cell-215", "trackId": "track-7", "maxDbz": 51.0, "areaPx": 61, "trackHeadingDeg": 117.9, "trackSpeedKmh": 69.7, "historyMinutes": 5, "history": [{"time": "20260907041500", "peakLon": 5.868404427371554, "peakLat": 47.04310624398993, "maxDbz": 47.0}, {"time": "20260907042000", "peakLon": 5.941862201074082, "peakLat": 47.02104140726242, "maxDbz": 51.0}], "birthLon": 5.868404427371554, "birthLat": 47.04310624398993, "birthDbz": 47.0, "ageMinutes": 5, "isNewborn": false, "trueBirth": false, "growthDbz": 4.0, "source": "OPERA-ORD", "time": "20260907042000"}, "geometry": {"type": "Polygon", "coordinates": [[[5.975270133296773, 46.979572283915495], [5.968721847365966, 46.97931973231857], [5.962173619900352, 46.97906677058961], [5.955625450899932, 46.97881339872858], [5.949077340552074, 46.97855961674709], [5.942529288856778, 46.978305424645114], [5.937530114962755, 46.97923962063377], [5.934079818870002, 46.981362204713044], [5.930629235889505, 46.983484669528295], [5.927178366021263, 46.98560701507952], [5.922178458399816, 46.98654024668429], [5.915629513025163, 46.98628436434261], [5.910629065624354, 46.98721725908769], [5.90717711619739, 46.98933893091955], [5.903724879768561, 46.99146048338611], [5.900272356337866, 46.99358191648737], [5.896819545845628, 46.99570323019245], [5.893366448291847, 46.99782442450134], [5.893188547599751, 47.00007431105054], [5.89628584376934, 47.00245288984006], [5.899383418013022, 47.0048313742722], [5.902481270330795, 47.00720976434697], [5.902303291893775, 47.00945963365631], [5.8988494827019595, 47.011580982200236], [5.895573686274502, 47.011452363155286], [5.892475902611402, 47.00907377652147], [5.889378397065517, 47.00669509554473], [5.88628116963685, 47.00431632022508], [5.8814571316476885, 47.00299771059794], [5.874906283098035, 47.00273926666331], [5.8699034830474695, 47.00367018520857], [5.866448731495993, 47.00579046623369], [5.864541924752441, 47.009100404511535], [5.864183062816812, 47.013600000042096], [5.865552142061022, 47.01703948031435], [5.868649162485073, 47.019418845328325], [5.873474227864287, 47.02073780018558], [5.880027338198664, 47.020996344886115], [5.884852994628176, 47.022315012799055], [5.88795119715282, 47.0246938039244], [5.8910496780358415, 47.027072500685136], [5.89414843727724, 47.02945110308126], [5.897247474954506, 47.031829611087446], [5.900346791067642, 47.03420802470367], [5.903446385694153, 47.0365863439046], [5.906546258834037, 47.03896456869025], [5.90964641056482, 47.041342699035226], [5.9127468408864985, 47.04372073493954], [5.914119576937765, 47.04715958237222], [5.91376461871862, 47.05165924133324], [5.913409582857655, 47.056158883143894], [5.91305446935487, 47.06065850780416], [5.912699278161976, 47.06515811532724], [5.912344009278971, 47.06965770571313], [5.913717602541022, 47.07309643617536], [5.916820057948127, 47.07547430671396], [5.921651478370378, 47.0767910219438], [5.928211863807775, 47.077046581864884], [5.933220454229214, 47.07611318156332], [5.936677249634696, 47.07399082103911], [5.940133756896874, 47.071868341068374], [5.94358997601575, 47.06974574165112], [5.947045907051416, 47.067623022818324], [5.950501550003871, 47.065500184569984], [5.953956904933212, 47.0633772269371], [5.95741197183944, 47.06125414991965], [5.960866750782647, 47.059130953548625], [5.9643212417628355, 47.05700763782401], [5.9662236998538924, 47.053696051122415], [5.966574125055817, 47.049196193443855], [5.966924473648524, 47.04469631864691], [5.967274745632014, 47.0401964267316], [5.969176196144309, 47.036884661817815], [5.972628825185408, 47.034761023905574], [5.976081166634043, 47.03263726674601], [5.979533220490213, 47.03051339033912], [5.981433664347226, 47.02720144729442], [5.981782498205083, 47.022701437611914], [5.98213125584213, 47.0182014107826], [5.982479937258364, 47.013701366806494], [5.984379375382552, 47.01038924571197], [5.987829570214696, 47.00826504749903], [5.991279477824351, 47.00614073014482], [5.9947290982115184, 47.00401629364932], [5.996627531524319, 47.00070399458591], [5.996974777762752, 46.99620383295459], [5.995597779118308, 46.992765914042245], [5.992496535590986, 46.99039023784886], [5.9893955701347155, 46.98801446704164], [5.9862948827494975, 46.98563860162058], [5.9831944733582105, 46.98326264161102], [5.980094341960854, 46.98088658701298], [5.975270133296773, 46.979572283915495]]]}}, {"type": "Feature", "properties": {"kind": "peak", "id": "cell-215", "cellId": "cell-215", "trackId": "track-7", "maxDbz": 51.0, "source": "OPERA-ORD", "time": "20260907042000"}, "geometry": {"type": "Point", "coordinates": [5.941862201074082, 47.02104140726242]}}, {"type": "Feature", "properties": {"kind": "centroid", "id": "cell-215", "cellId": "cell-215", "trackId": "track-7", "maxDbz": 51.0, "source": "OPERA-ORD", "time": "20260907042000"}, "geometry": {"type": "Point", "coordinates": [5.937031011601788, 47.0203423783466]}}, {"type": "Feature", "properties": {"kind": "cell", "id": "cell-196", "trackId": "track-14", "maxDbz": 48.5, "areaPx": 59, "trackHeadingDeg": 64.6, "trackSpeedKmh": 64.5, "historyMinutes": 5, "history": [{"time": "20260907041500", "peakLon": 5.634526194172199, "peakLat": 47.475941570218865, "maxDbz": 46.0}, {"time": "20260907042000", "peakLon": 5.720497718181744, "peakLat": 47.498859814494374, "maxDbz": 48.5}], "birthLon": 5.634526194172199, "birthLat": 47.475941570218865, "birthDbz": 46.0, "ageMinutes": 5, "isNewborn": false, "trueBirth": false, "growthDbz": 2.5, "source": "OPERA-ORD", "time": "20260907042000"}, "geometry": {"type": "Polygon", "coordinates": [[[5.778588786490684, 47.47843021625267], [5.775097446258696, 47.480546484449455], [5.7716058120907485, 47.4826626317564], [5.768113883986842, 47.48477865817348], [5.763061988754673, 47.48570358527005], [5.75645012639424, 47.485437413046114], [5.751584806485696, 47.48411325390949], [5.748466029029043, 47.48173110786019], [5.745347535894891, 47.47934886721098], [5.742229327083241, 47.47696653196185], [5.737364996422172, 47.475641475591004], [5.73075454391168, 47.47537369809843], [5.724144155010729, 47.47510550616266], [5.717533829719317, 47.474836899783696], [5.710923568231464, 47.474567878974135], [5.7043133705471725, 47.474298443733986], [5.697703236860431, 47.474028594075875], [5.69109316717124, 47.473758329999804], [5.684483161673563, 47.473487651518454], [5.677873220367397, 47.47321655863183], [5.672820521843755, 47.4741373824061], [5.669325066102635, 47.47625012284128], [5.667386741827825, 47.47955507820094], [5.667005549019326, 47.48405224848507], [5.666624272098308, 47.48854940207012], [5.666242911064773, 47.49304653895609], [5.667610187302998, 47.49648735425711], [5.670726100812983, 47.49887184797319], [5.675590763074363, 47.50019972164186], [5.68220417408714, 47.50047097526313], [5.687069442341913, 47.50179856059061], [5.690186567838683, 47.504182477624326], [5.693303977886181, 47.50656630018814], [5.696421672484405, 47.50895002828205], [5.69953965171376, 47.51133366188021], [5.702657915574245, 47.51371720098262], [5.704027851912404, 47.517157569331765], [5.703649460728235, 47.521654766927654], [5.703270985981378, 47.526151947913235], [5.702892427671835, 47.53064911228851], [5.704263061105799, 47.53408937956001], [5.707382886283271, 47.53647274972773], [5.71225201396307, 47.53779892399], [5.718870444145196, 47.53806790234682], [5.725488938236807, 47.538336465691344], [5.7321074962379015, 47.538604614023576], [5.736977616644891, 47.53992989022278], [5.740099299457775, 47.54231229428896], [5.741472434680999, 47.54575212508004], [5.741097022314561, 47.55024938259601], [5.742470691403752, 47.55368912366478], [5.745593441948573, 47.55607134828636], [5.7504653838397894, 47.55739575746148], [5.757086517077399, 47.55766235119016], [5.762145694610837, 47.55673780621551], [5.765642916440102, 47.55462212253751], [5.769139843299059, 47.55250631778484], [5.772636475187706, 47.55039039195749], [5.776132812167629, 47.548274345087336], [5.779628854238825, 47.54615817717439], [5.78312460146288, 47.54404188825054], [5.786620053839794, 47.541925478315775], [5.790115211431154, 47.53980894740198], [5.793610074236959, 47.53769229550915], [5.793795626633654, 47.53544354987089], [5.790671868621239, 47.5330627104872], [5.787548395742348, 47.53068177630014], [5.784425207996982, 47.52830074730971], [5.783049333396933, 47.52486147546424], [5.783420771942202, 47.52036396076373], [5.785353224848142, 47.51705693439427], [5.788846692114751, 47.51494039635586], [5.792339864983979, 47.512823737407686], [5.795832743455826, 47.51070695754974], [5.797764159014432, 47.50739975103967], [5.798134111659799, 47.50290211787747], [5.79850398267495, 47.49840446815054], [5.798873772059883, 47.4939068018589], [5.797498031423106, 47.49046757290584], [5.794376760764617, 47.48808678129136], [5.791255774616607, 47.48570589492893], [5.788135072979074, 47.48332491381853], [5.785014655771901, 47.48094383798606], [5.781894522995087, 47.47856266743153], [5.778588786490684, 47.47843021625267]]]}}, {"type": "Feature", "properties": {"kind": "peak", "id": "cell-196", "cellId": "cell-196", "trackId": "track-14", "maxDbz": 48.5, "source": "OPERA-ORD", "time": "20260907042000"}, "geometry": {"type": "Point", "coordinates": [5.720497718181744, 47.498859814494374]}}, {"type": "Feature", "properties": {"kind": "centroid", "id": "cell-196", "cellId": "cell-196", "trackId": "track-14", "maxDbz": 48.5, "source": "OPERA-ORD", "time": "20260907042000"}, "geometry": {"type": "Point", "coordinates": [5.738815238804578, 47.50881824292348]}}, {"type": "Feature", "properties": {"kind": "cell", "id": "cell-219", "trackId": "track-15", "maxDbz": 48.0, "areaPx": 46, "trackHeadingDeg": 73.3, "trackSpeedKmh": 24.6, "historyMinutes": 15, "history": [{"time": "20260907040500", "peakLon": 6.78314898417576, "peakLat": 46.92184859379616, "maxDbz": 53.0}, {"time": "20260907041000", "peakLon": 6.834406327726305, "peakLat": 46.94146217778686, "maxDbz": 52.0}, {"time": "20260907041500", "peakLon": 6.8857018165388935, "peakLat": 46.96105047755138, "maxDbz": 48.0}, {"time": "20260907042000", "peakLon": 6.890567127755523, "peakLat": 46.947951770225345, "maxDbz": 48.0}], "birthLon": 6.78314898417576, "birthLat": 46.92184859379616, "birthDbz": 53.0, "ageMinutes": 15, "isNewborn": false, "trueBirth": false, "growthDbz": -5.0, "source": "OPERA-ORD", "time": "20260907042000"}, "geometry": {"type": "Polygon", "coordinates": [[[6.923589394446727, 46.93059358719644], [6.917043867490979, 46.93040048946256], [6.910498385176696, 46.930206981577854], [6.903952947503876, 46.93001306354232], [6.897407554660468, 46.92981873536479], [6.890862206646471, 46.929623997045276], [6.884316903649811, 46.92942884859265], [6.877771645670492, 46.92923329000692], [6.871226432896416, 46.929037321296974], [6.864681265327581, 46.92884094246284], [6.859704326199066, 46.92981934493253], [6.8562956155108665, 46.931972528706055], [6.8544550546465155, 46.93530078887355], [6.854182643606011, 46.93980412543498], [6.855615153000957, 46.94323088928629], [6.858752582831353, 46.94558108042746], [6.861890291855525, 46.94793117442093], [6.865028280073476, 46.9502811712667], [6.866461515243411, 46.95370782385093], [6.866189997365329, 46.958211132173616], [6.8676237650226115, 46.96163768883224], [6.870762818215257, 46.9639874938268], [6.873902150874028, 46.96633720160957], [6.877041762998925, 46.96868681218055], [6.88018165466547, 46.97103632551371], [6.883321825873663, 46.97338574160907], [6.888167413246614, 46.974657913654454], [6.894718416784323, 46.97485284164985], [6.901269465300907, 46.975047359105545], [6.907820558796366, 46.97524146602156], [6.912800694898664, 46.97426104173341], [6.9162098736078, 46.97210608624111], [6.919618765842502, 46.96995101456579], [6.923027371602773, 46.96779582670744], [6.926302702374801, 46.967892254945305], [6.929444758158588, 46.9702402992794], [6.930882739350829, 46.973666037136255], [6.930616645951525, 46.97816946851586], [6.9320551609217125, 46.98159511006821], [6.93519828426139, 46.9839429617933], [6.938341687457497, 46.98629071608277], [6.941485370510032, 46.98863837293662], [6.944629333494505, 46.99098593232876], [6.947773576410917, 46.993333394259196], [6.952622555772514, 46.99460257363405], [6.959176271579295, 46.99479347045331], [6.965730031480605, 46.9949839565295], [6.972283835476445, 46.995174031862625], [6.978837683377892, 46.99536369644397], [6.985391575184945, 46.99555295027354], [6.990372167790024, 46.994568846824635], [6.993779461193128, 46.992411386097245], [6.995613379866164, 46.98908086379166], [6.995873923809129, 46.984577279907896], [6.996134410825611, 46.98007367952076], [6.996394840915613, 46.97557006263026], [6.99665521411449, 46.971066429222724], [6.996915530422244, 46.966562779298144], [6.995473389766273, 46.963137912977444], [6.992328792146576, 46.96079183026062], [6.9874818129332255, 46.959524235713815], [6.98093245212622, 46.95933512933702], [6.976086057294651, 46.9580672412405], [6.972942628438518, 46.955720571424266], [6.969799479086095, 46.95337380411562], [6.9666566092373845, 46.951026939314545], [6.961811147375954, 46.949758151437905], [6.955263093501802, 46.949567440485694], [6.948715083763865, 46.94937631919733], [6.942167118162143, 46.949184787572804], [6.9371897170980805, 46.95016686561113], [6.9337828805716795, 46.95232255331231], [6.930375757819993, 46.954478124911674], [6.926968348843022, 46.956633580409225], [6.923694149816864, 46.95653718972585], [6.920553160741521, 46.95418895286156], [6.920686345016819, 46.95193720512252], [6.924093702642756, 46.949781946508764], [6.927500774105912, 46.947626571783715], [6.930907559406286, 46.94547108094737], [6.932743766478021, 46.94214155352057], [6.9330093953211165, 46.9376379895033], [6.9315721967881485, 46.93421218963685], [6.928432170879116, 46.931864153921204], [6.923589394446727, 46.93059358719644]]]}}, {"type": "Feature", "properties": {"kind": "peak", "id": "cell-219", "cellId": "cell-219", "trackId": "track-15", "maxDbz": 48.0, "source": "OPERA-ORD", "time": "20260907042000"}, "geometry": {"type": "Point", "coordinates": [6.890567127755523, 46.947951770225345]}}, {"type": "Feature", "properties": {"kind": "centroid", "id": "cell-219", "cellId": "cell-219", "trackId": "track-15", "maxDbz": 48.0, "source": "OPERA-ORD", "time": "20260907042000"}, "geometry": {"type": "Point", "coordinates": [6.927642085355124, 46.96091957624627]}}]}