{"type": "FeatureCollection", "features": [{"type": "Feature", "properties": {"band": "light", "dbz": 30.0, "source": "OPERA-ORD", "time": "20260725033000"}, "geometry": {"type": "Polygon", "coordinates": [[[17.765962398199747, 49.383743508840574], [17.759117037376733, 49.38423261943806], [17.752271548715214, 49.38472130047145], [17.745425932215184, 49.38520955194074], [17.738580188091703, 49.38569737382063], [17.731734316344763, 49.386184766111114], [17.724888317189492, 49.3866717287869], [17.718042190625887, 49.38715826184801], [17.71308690441536, 49.38864084996062], [17.710022458557912, 49.39111949312475], [17.708849071671104, 49.39459449993625], [17.709566743754927, 49.39906587039511], [17.710284580189533, 49.40353722268745], [17.711002580974917, 49.408008556813265], [17.713253660550723, 49.41124050254288], [17.71703781891696, 49.4132330598763], [17.720462508875503, 49.41298988161741], [17.723527730426355, 49.41051096776623], [17.726592648518224, 49.40803196725439], [17.729657263151108, 49.4055528800819], [17.734613756378778, 49.40406953886537], [17.741462128201235, 49.403581943604806], [17.748310372223003, 49.40309391858095], [17.75515848844409, 49.402605463793805], [17.76200647664914, 49.40211657926873], [17.768854336838167, 49.40162726500571], [17.773809141301893, 49.40014240937293], [17.776870890040318, 49.3976620123704], [17.778039803495503, 49.394186382569565], [17.777315881667437, 49.38971551997044], [17.77506171021787, 49.38648480488862], [17.771277289146788, 49.3844942373241], [17.765962398199747, 49.383743508840574]]]}}, {"type": "Feature", "properties": {"band": "echo", "dbz": 35.0, "source": "OPERA-ORD", "time": "20260725033000"}, "geometry": {"type": "Polygon", "coordinates": [[[17.765962398199747, 49.383743508840574], [17.759117037376733, 49.38423261943806], [17.752271548715214, 49.38472130047145], [17.745425932215184, 49.38520955194074], [17.738580188091703, 49.38569737382063], [17.731734316344763, 49.386184766111114], [17.724888317189492, 49.3866717287869], [17.718042190625887, 49.38715826184801], [17.71308690441536, 49.38864084996062], [17.710022458557912, 49.39111949312475], [17.708849071671104, 49.39459449993625], [17.709566743754927, 49.39906587039511], [17.710284580189533, 49.40353722268745], [17.711002580974917, 49.408008556813265], [17.713253660550723, 49.41124050254288], [17.71703781891696, 49.4132330598763], [17.720462508875503, 49.41298988161741], [17.723527730426355, 49.41051096776623], [17.726592648518224, 49.40803196725439], [17.729657263151108, 49.4055528800819], [17.734613756378778, 49.40406953886537], [17.741462128201235, 49.403581943604806], [17.748310372223003, 49.40309391858095], [17.75515848844409, 49.402605463793805], [17.76200647664914, 49.40211657926873], [17.768854336838167, 49.40162726500571], [17.773809141301893, 49.40014240937293], [17.776870890040318, 49.3976620123704], [17.778039803495503, 49.394186382569565], [17.777315881667437, 49.38971551997044], [17.77506171021787, 49.38648480488862], [17.771277289146788, 49.3844942373241], [17.765962398199747, 49.383743508840574]]]}}, {"type": "Feature", "properties": {"band": "rain", "dbz": 40.0, "source": "OPERA-ORD", "time": "20260725033000"}, "geometry": {"type": "Polygon", "coordinates": [[[17.752271548715214, 49.38472130047145], [17.745425932215184, 49.38520955194074], [17.738580188091703, 49.38569737382063], [17.731734316344763, 49.386184766111114], [17.724888317189492, 49.3866717287869], [17.718042190625887, 49.38715826184801], [17.71308690441536, 49.38864084996062], [17.710022458557912, 49.39111949312475], [17.708849071671104, 49.39459449993625], [17.709566743754927, 49.39906587039511], [17.71181726396801, 49.402297868684], [17.715600632310345, 49.404290494802915], [17.72091662997802, 49.40504344002069], [17.72776525697104, 49.40455670433734], [17.734613756378778, 49.40406953886537], [17.741462128201235, 49.403581943604806], [17.748310372223003, 49.40309391858095], [17.75515848844409, 49.402605463793805], [17.760113797515643, 49.401121227269456], [17.763176299437674, 49.398641209007906], [17.7643462142817, 49.395165717617736], [17.76362354204773, 49.390694753098934], [17.761370243689363, 49.38746374681385], [17.75758631920661, 49.385472698762484], [17.752271548715214, 49.38472130047145]]]}}]}