{"type": "FeatureCollection", "features": [{"type": "Feature", "properties": {"band": "light", "dbz": 30.0, "source": "OPERA-ORD", "time": "20260724155000"}, "geometry": {"type": "Polygon", "coordinates": [[[13.155837422570269, 50.44314599669221], [13.148809303527212, 50.443345389641934], [13.143613711185273, 50.44461806028171], [13.140250645544445, 50.446964008611545], [13.138720201652832, 50.450383559386694], [13.139022379510434, 50.454876712607145], [13.141006764761887, 50.45819687020504], [13.14467335740719, 50.46034403218041], [13.150022062314344, 50.46131787362802], [13.157052879483347, 50.46111839454788], [13.162249725499116, 50.45984535602335], [13.165612600361651, 50.45749875805441], [13.167141599801242, 50.45407892552492], [13.166836723817893, 50.44958585843486], [13.16485108489261, 50.44626606872171], [13.161184683025402, 50.44411955638547], [13.155837422570269, 50.44314599669221]]]}}, {"type": "Feature", "properties": {"band": "light", "dbz": 30.0, "source": "OPERA-ORD", "time": "20260724155000"}, "geometry": {"type": "Polygon", "coordinates": [[[17.09765991201877, 49.71974646520074], [17.094544116863784, 49.72220773707797], [17.09331982429165, 49.7256758440558], [17.093987034302376, 49.73015078613422], [17.094654398397623, 49.734625711478294], [17.095321916577387, 49.73910062008801], [17.09754821314318, 49.74234483045707], [17.101333288095002, 49.74435834258547], [17.104784138977514, 49.74413432806237], [17.10790076579072, 49.74167278688778], [17.11101708191011, 49.739211156669164], [17.114133087335684, 49.736749437406516], [17.11724878216643, 49.73428762912652], [17.120364166402346, 49.731825731829176], [17.120029526643343, 49.729588339900914], [17.116244862889413, 49.72757545334174], [17.112460526955985, 49.72556243055642], [17.108676518843055, 49.72354927154497], [17.104892838489008, 49.72153597634496], [17.101109485893843, 49.719522544956405], [17.09765991201877, 49.71974646520074]]]}}, {"type": "Feature", "properties": {"band": "light", "dbz": 30.0, "source": "OPERA-ORD", "time": "20260724155000"}, "geometry": {"type": "Polygon", "coordinates": [[[17.023327896641433, 49.41617792105133], [17.016471863280206, 49.41662038373011], [17.011493008483498, 49.418071167983925], [17.008391332251307, 49.420530273812766], [17.007167033896174, 49.423998011463844], [17.007820113418095, 49.42847438093715], [17.00847334276009, 49.43295073339038], [17.009126721922172, 49.43742706882352], [17.01133180794657, 49.440673790711195], [17.015088600833288, 49.44269089905342], [17.020396900964954, 49.44347808339236], [17.027256708341568, 49.44303534372802], [17.032237489864464, 49.441584096089954], [17.03533924553365, 49.439124340478166], [17.03656217549969, 49.43565638730608], [17.035906279762578, 49.4311802365737], [17.035250534410547, 49.4267040687775], [17.034594939443597, 49.422227883917465], [17.0323893348006, 49.41898151604357], [17.028633720481565, 49.41696496515581], [17.023327896641433, 49.41617792105133]]]}}, {"type": "Feature", "properties": {"band": "light", "dbz": 30.0, "source": "OPERA-ORD", "time": "20260724155000"}, "geometry": {"type": "Polygon", "coordinates": [[[19.060454381515292, 48.88572306270207], [19.057487241074288, 48.88823885576055], [19.056418656739908, 48.89172763744903], [19.057248628512163, 48.89618940776752], [19.056179545061642, 48.89967812604162], [19.053211406388357, 48.902193792271326], [19.049828406894953, 48.90247845429404], [19.04603054658144, 48.90053211210977], [19.042232998799573, 48.89858562969739], [19.038435763549348, 48.896639007056905], [19.035052619436602, 48.896923245817085], [19.032083566461335, 48.89943834597793], [19.031013005621414, 48.90292687648733], [19.031840936916836, 48.90738883734528], [19.03415399868198, 48.91059318994391], [19.037952190916844, 48.91253993428321], [19.043235264778033, 48.91322876868247], [19.05000322026556, 48.91265969314169], [19.05528683655072, 48.91334814643522], [19.059086113633533, 48.91529412856303], [19.062885703487904, 48.91723997035668], [19.066685606113836, 48.919185671816166], [19.07006966850697, 48.91890046979535], [19.073037890667297, 48.91638436429424], [19.074106036714017, 48.91289552720634], [19.073274106647126, 48.90843395853166], [19.07244236448141, 48.903972368620735], [19.07161081021688, 48.899510757473585], [19.070779443732505, 48.89504912508207], [19.069948265028295, 48.89058747144617], [19.06763399469109, 48.88738377501437], [19.063836632720893, 48.88543803578668], [19.060454381515292, 48.88572306270207]]]}}, {"type": "Feature", "properties": {"band": "light", "dbz": 30.0, "source": "OPERA-ORD", "time": "20260724155000"}, "geometry": {"type": "Polygon", "coordinates": [[[19.30968679587341, 47.965470849970735], [19.303048239033146, 47.96605485148872], [19.29827635395744, 47.96760836599171], [19.29537114064629, 47.97013139347969], [19.29246565025793, 47.97265434072403], [19.289559882792364, 47.975177207724705], [19.286653838159978, 47.97769999445954], [19.283747516360773, 47.98022270092853], [19.282708271606857, 47.983715409655744], [19.283536103898236, 47.98817812064119], [19.28581767288552, 47.99137942034718], [19.289552978568715, 47.99331930877373], [19.29474177759193, 47.99399749216309], [19.30138406995517, 47.99341397051528], [19.306158133549044, 47.99186056278746], [19.309063968373554, 47.98933726897963], [19.311969525947454, 47.9868138949591], [19.314874806270744, 47.98429044072584], [19.317779809433134, 47.98176690630207], [19.320684535434616, 47.979243291687766], [19.321721439289817, 47.97575028044116], [19.320890520998745, 47.97128787256227], [19.31860781496329, 47.96808721377005], [19.31487332118346, 47.96614830406452], [19.30968679587341, 47.965470849970735]]]}}, {"type": "Feature", "properties": {"band": "light", "dbz": 30.0, "source": "OPERA-ORD", "time": "20260724155000"}, "geometry": {"type": "Polygon", "coordinates": [[[19.237305047367173, 47.70989633058077], [19.234410437314114, 47.71241799621972], [19.231515553503222, 47.714939581705025], [19.2286203959345, 47.717461087036675], [19.225724964519983, 47.71998251219276], [19.222829259259676, 47.72250385717328], [19.223237534397526, 47.724735917509335], [19.226949789933535, 47.726678693200924], [19.230662340281114, 47.72862133148602], [19.234375185440257, 47.73056383236461], [19.236640437465415, 47.73376707996443], [19.23745809635658, 47.73823107428547], [19.2382759353838, 47.74269504557762], [19.239093954547076, 47.74715899384087], [19.239912153959043, 47.75162291908359], [19.2407305336197, 47.756086821305765], [19.24299756518108, 47.75928976485562], [19.24671324864319, 47.76123174973315], [19.25187734470022, 47.761912483878916], [19.25848985335218, 47.76133196729294], [19.26324395068587, 47.75978051571666], [19.26613963670129, 47.75725812915009], [19.267177151159615, 47.75376509959987], [19.26635649406085, 47.74930142706598], [19.26553601769435, 47.744837731459356], [19.26471572206012, 47.74037401278], [19.262448346735255, 47.73717141271345], [19.258733891719764, 47.73522993125971], [19.255019731577722, 47.73328831229129], [19.25130586630914, 47.73134655580819], [19.24903971557199, 47.728143714673564], [19.24822127936628, 47.723679788887424], [19.247403023313037, 47.71921584002962], [19.24658494741226, 47.71475186810017], [19.24432002019483, 47.71154878604191], [19.240608241660745, 47.70960659385483], [19.237305047367173, 47.70989633058077]]]}}, {"type": "Feature", "properties": {"band": "light", "dbz": 30.0, "source": "OPERA-ORD", "time": "20260724155000"}, "geometry": {"type": "Polygon", "coordinates": [[[16.102644982308778, 47.92722979175336], [16.095985562327254, 47.92761291560503], [16.0911265657439, 47.929021804422845], [16.088067992558713, 47.931456458206796], [16.086810002827455, 47.934917176508485], [16.087352596550133, 47.93940395932791], [16.08942506351894, 47.942673377030786], [16.093027403733892, 47.94472542961711], [16.098159457006865, 47.94555981740653], [16.104821223337865, 47.945176540399046], [16.109681232732136, 47.94376727540518], [16.112739485189685, 47.941332022424916], [16.113996141382458, 47.93787108110299], [16.113451201310454, 47.933384451439395], [16.111377721530722, 47.930115409912574], [16.10777570204327, 47.92806395652254], [16.102644982308778, 47.92722979175336]]]}}, {"type": "Feature", "properties": {"band": "echo", "dbz": 35.0, "source": "OPERA-ORD", "time": "20260724155000"}, "geometry": {"type": "Polygon", "coordinates": [[[13.155837422570269, 50.44314599669221], [13.148809303527212, 50.443345389641934], [13.143613711185273, 50.44461806028171], [13.140250645544445, 50.446964008611545], [13.138720201652832, 50.450383559386694], [13.139022379510434, 50.454876712607145], [13.141006764761887, 50.45819687020504], [13.14467335740719, 50.46034403218041], [13.150022062314344, 50.46131787362802], [13.157052879483347, 50.46111839454788], [13.162249725499116, 50.45984535602335], [13.165612600361651, 50.45749875805441], [13.167141599801242, 50.45407892552492], [13.166836723817893, 50.44958585843486], [13.16485108489261, 50.44626606872171], [13.161184683025402, 50.44411955638547], [13.155837422570269, 50.44314599669221]]]}}, {"type": "Feature", "properties": {"band": "echo", "dbz": 35.0, "source": "OPERA-ORD", "time": "20260724155000"}, "geometry": {"type": "Polygon", "coordinates": [[[19.237305047367173, 47.70989633058077], [19.234410437314114, 47.71241799621972], [19.231515553503222, 47.714939581705025], [19.2286203959345, 47.717461087036675], [19.225724964519983, 47.71998251219276], [19.222829259259676, 47.72250385717328], [19.223237534397526, 47.724735917509335], [19.226949789933535, 47.726678693200924], [19.230662340281114, 47.72862133148602], [19.234375185440257, 47.73056383236461], [19.23808832545793, 47.732506195802046], [19.24180176033413, 47.73444842179833], [19.245106091747882, 47.734158570489015], [19.248001319699192, 47.73163664187409], [19.24903971557199, 47.728143714673564], [19.24822127936628, 47.723679788887424], [19.247403023313037, 47.71921584002962], [19.24658494741226, 47.71475186810017], [19.24432002019483, 47.71154878604191], [19.240608241660745, 47.70960659385483], [19.237305047367173, 47.70989633058077]]]}}, {"type": "Feature", "properties": {"band": "rain", "dbz": 40.0, "source": "OPERA-ORD", "time": "20260724155000"}, "geometry": {"type": "Polygon", "coordinates": [[[13.155837422570269, 50.44314599669221], [13.148809303527212, 50.443345389641934], [13.143613711185273, 50.44461806028171], [13.140250645544445, 50.446964008611545], [13.138720201652832, 50.450383559386694], [13.139022379510434, 50.454876712607145], [13.141006764761887, 50.45819687020504], [13.14467335740719, 50.46034403218041], [13.150022062314344, 50.46131787362802], [13.157052879483347, 50.46111839454788], [13.162249725499116, 50.45984535602335], [13.165612600361651, 50.45749875805441], [13.167141599801242, 50.45407892552492], [13.166836723817893, 50.44958585843486], [13.16485108489261, 50.44626606872171], [13.161184683025402, 50.44411955638547], [13.155837422570269, 50.44314599669221]]]}}]}